SOYUZ-MS 25             
1 59294U 24055A   24111.52725427  .00028532  00000+0  49696-3 0  9994
2 59294  51.6372 241.3152 0004678  80.5863 279.5654 15.50510137449607
